start=new Date('2023-01-05T00:00:00.000Z').valueOf();
sats=[{"DECAY_DATE":null,"CLASSIFICATION_TYPE":"U","ELEMENT_SET_NO":"999","NORAD_CAT_ID":"45206","MEAN_ANOMALY":"274.5564","BSTAR":"0.00008135900000","EPHEMERIS_TYPE":"0","MEAN_MOTION_DOT":"0.00000931","PERIOD":"95.592","OBJECT_NAME":"STARLINK-1209","ECCENTRICITY":"0.00012650","ARG_OF_PERICENTER":"85.5570","SEMIMAJOR_AXIS":"6925.324","OBJECT_TYPE":"PAYLOAD","APOAPSIS":"548.065","TLE_LINE1":"1 45206U 20012AE  23004.46892833  .00000931  00000-0  81359-4 0  9997","RCS_SIZE":"LARGE","FILE":"3731823","MEAN_MOTION_DDOT":"0.0000000000000","MEAN_MOTION":"15.06407899","PERIAPSIS":"546.313","OBJECT_ID":"2020-012AE","TIME_SYSTEM":"UTC","EPOCH":"2023-01-04T11:15:15.407712","LAUNCH_DATE":"2020-02-17","INCLINATION":"53.0550","MEAN_ELEMENT_THEORY":"SGP4","COUNTRY_CODE":"US","REF_FRAME":"TEME","REV_AT_EPOCH":"15957","RA_OF_ASC_NODE":"175.0490","GP_ID":"222156493","CENTER_NAME":"EARTH","SITE":"AFETR","TLE_LINE2":"2 45206  53.0550 175.0490 0001265  85.5570 274.5564 15.06407899159576"},{"TLE_LINE1":"1 45207U 20012AF  23004.79513951  .00001472  00000-0  11768-3 0  9992","APOAPSIS":"548.245","RCS_SIZE":"LARGE","ECCENTRICITY":"0.00015260","OBJECT_NAME":"STARLINK-1210","SEMIMAJOR_AXIS":"6925.323","ARG_OF_PERICENTER":"80.9294","OBJECT_TYPE":"PAYLOAD","MEAN_ANOMALY":"279.1868","BSTAR":"0.00011768000000","EPHEMERIS_TYPE":"0","MEAN_MOTION_DOT":"0.00001472","PERIOD":"95.592","CLASSIFICATION_TYPE":"U","DECAY_DATE":null,"NORAD_CAT_ID":"45207","ELEMENT_SET_NO":"999","CENTER_NAME":"EARTH","GP_ID":"222193279","TLE_LINE2":"2 45207  53.0546 193.5928 0001526  80.9294 279.1868 15.06408234159353","SITE":"AFETR","COUNTRY_CODE":"US","RA_OF_ASC_NODE":"193.5928","REV_AT_EPOCH":"15935","REF_FRAME":"TEME","TIME_SYSTEM":"UTC","LAUNCH_DATE":"2020-02-17","MEAN_ELEMENT_THEORY":"SGP4","INCLINATION":"53.0546","EPOCH":"2023-01-04T19:05:00.053664","FILE":"3732024","MEAN_MOTION_DDOT":"0.0000000000000","MEAN_MOTION":"15.06408234","PERIAPSIS":"546.132","OBJECT_ID":"2020-012AF"},{"CLASSIFICATION_TYPE":"U","DECAY_DATE":null,"NORAD_CAT_ID":"45208","ELEMENT_SET_NO":"999","MEAN_ANOMALY":"247.4921","BSTAR":"0.00013202000000","EPHEMERIS_TYPE":"0","MEAN_MOTION_DOT":"0.00001645","PERIOD":"95.644","OBJECT_NAME":"STARLINK-1211","ECCENTRICITY":"0.00013920","SEMIMAJOR_AXIS":"6927.833","ARG_OF_PERICENTER":"112.6214","OBJECT_TYPE":"PAYLOAD","TLE_LINE1":"1 45208U 20012AG  23004.46401614  .00001645  00000-0  13202-3 0  9996","APOAPSIS":"550.662","RCS_SIZE":"LARGE","MEAN_MOTION_DDOT":"0.0000000000000","FILE":"3731823","MEAN_MOTION":"15.05589821","PERIAPSIS":"548.733","OBJECT_ID":"2020-012AG","TIME_SYSTEM":"UTC","LAUNCH_DATE":"2020-02-17","INCLINATION":"52.9975","EPOCH":"2023-01-04T11:08:10.994496","MEAN_ELEMENT_THEORY":"SGP4","COUNTRY_CODE":"US","RA_OF_ASC_NODE":"195.0734","REV_AT_EPOCH":"16012","REF_FRAME":"TEME","CENTER_NAME":"EARTH","GP_ID":"222155492","TLE_LINE2":"2 45208  52.9975 195.0734 0001392 112.6214 247.4921 15.05589821160122","SITE":"AFETR"},{"NORAD_CAT_ID":"45210","ELEMENT_SET_NO":"999","CLASSIFICATION_TYPE":"U","DECAY_DATE":null,"PERIOD":"95.592","MEAN_MOTION_DOT":"0.00001676","EPHEMERIS_TYPE":"0","BSTAR":"0.00013141000000","MEAN_ANOMALY":"276.6213","OBJECT_TYPE":"PAYLOAD","ARG_OF_PERICENTER":"83.4949","SEMIMAJOR_AXIS":"6925.364","OBJECT_NAME":"STARLINK-1219","ECCENTRICITY":"0.00015210","RCS_SIZE":"LARGE","TLE_LINE1":"1 45210U 20012AJ  23004.79884443  .00001676  00000-0  13141-3 0  9996","APOAPSIS":"548.282","OBJECT_ID":"2020-012AJ","PERIAPSIS":"546.176","MEAN_MOTION":"15.06394997","MEAN_MOTION_DDOT":"0.0000000000000","FILE":"3732031","INCLINATION":"53.0537","LAUNCH_DATE":"2020-02-17","MEAN_ELEMENT_THEORY":"SGP4","EPOCH":"2023-01-04T19:10:20.158752","TIME_SYSTEM":"UTC","REV_AT_EPOCH":"15935","RA_OF_ASC_NODE":"193.5827","REF_FRAME":"TEME","COUNTRY_CODE":"US","TLE_LINE2":"2 45210  53.0537 193.5827 0001521  83.4949 276.6213 15.06394997159351","SITE":"AFETR","CENTER_NAME":"EARTH","GP_ID":"222193286"},{"MEAN_MOTION":"15.06393010","FILE":"3731823","MEAN_MOTION_DDOT":"0.0000000000000","OBJECT_ID":"2020-012AL","PERIAPSIS":"546.275","INCLINATION":"53.0540","LAUNCH_DATE":"2020-02-17","MEAN_ELEMENT_THEORY":"SGP4","EPOCH":"2023-01-03T21:40:32.302560","TIME_SYSTEM":"UTC","COUNTRY_CODE":"US","REF_FRAME":"TEME","REV_AT_EPOCH":"16011","RA_OF_ASC_NODE":"197.6060","GP_ID":"222156994","CENTER_NAME":"EARTH","SITE":"AFETR","TLE_LINE2":"2 45212  53.0540 197.6060 0001386  93.0815 267.0333 15.06393010160117","DECAY_DATE":null,"CLASSIFICATION_TYPE":"U","ELEMENT_SET_NO":"999","NORAD_CAT_ID":"45212","BSTAR":"0.00013741000000","EPHEMERIS_TYPE":"0","MEAN_ANOMALY":"267.0333","PERIOD":"95.593","MEAN_MOTION_DOT":"0.00001765","OBJECT_NAME":"STARLINK-1231","ECCENTRICITY":"0.00013860","OBJECT_TYPE":"PAYLOAD","ARG_OF_PERICENTER":"93.0815","SEMIMAJOR_AXIS":"6925.370","APOAPSIS":"548.195","TLE_LINE1":"1 45212U 20012AL  23003.90315165  .00001765  00000-0  13741-3 0  9995","RCS_SIZE":"LARGE"},{"MEAN_ANOMALY":"239.0186","EPHEMERIS_TYPE":"0","BSTAR":"0.00305990000000","MEAN_MOTION_DOT":"0.00155674","PERIOD":"93.129","CLASSIFICATION_TYPE":"U","DECAY_DATE":null,"NORAD_CAT_ID":"45213","ELEMENT_SET_NO":"999","TLE_LINE1":"1 45213U 20012AM  23004.59013372  .00155674  00000-0  30599-2 0  9995","APOAPSIS":"429.897","RCS_SIZE":"LARGE","OBJECT_NAME":"STARLINK-1232","ECCENTRICITY":"0.00032020","SEMIMAJOR_AXIS":"6805.853","ARG_OF_PERICENTER":"121.1135","OBJECT_TYPE":"PAYLOAD","TIME_SYSTEM":"UTC","LAUNCH_DATE":"2020-02-17","INCLINATION":"53.0563","EPOCH":"2023-01-04T14:09:47.553408","MEAN_ELEMENT_THEORY":"SGP4","FILE":"3731823","MEAN_MOTION_DDOT":"0.0000000000000","MEAN_MOTION":"15.46247233","PERIAPSIS":"425.539","OBJECT_ID":"2020-012AM","CENTER_NAME":"EARTH","GP_ID":"222157237","TLE_LINE2":"2 45213  53.0563 113.2368 0003202 121.1135 239.0186 15.46247233161424","SITE":"AFETR","COUNTRY_CODE":"US","RA_OF_ASC_NODE":"113.2368","REV_AT_EPOCH":"16142","REF_FRAME":"TEME"},{"COUNTRY_CODE":"US","REF_FRAME":"TEME","REV_AT_EPOCH":"15935","RA_OF_ASC_NODE":"193.5399","GP_ID":"222193302","CENTER_NAME":"EARTH","SITE":"AFETR","TLE_LINE2":"2 45214  53.0542 193.5399 0001578  79.9396 280.1771 15.06401692159353","FILE":"3732025","MEAN_MOTION_DDOT":"0.0000000000000","MEAN_MOTION":"15.06401692","PERIAPSIS":"546.116","OBJECT_ID":"2020-012AN","TIME_SYSTEM":"UTC","INCLINATION":"53.0542","LAUNCH_DATE":"2020-02-17","EPOCH":"2023-01-04T19:19:34.021632","MEAN_ELEMENT_THEORY":"SGP4","ECCENTRICITY":"0.00015780","OBJECT_NAME":"STARLINK-1233","SEMIMAJOR_AXIS":"6925.343","ARG_OF_PERICENTER":"79.9396","OBJECT_TYPE":"PAYLOAD","APOAPSIS":"548.301","TLE_LINE1":"1 45214U 20012AN  23004.80525488  .00000855  00000-0  76270-4 0  9994","RCS_SIZE":"LARGE","DECAY_DATE":null,"CLASSIFICATION_TYPE":"U","ELEMENT_SET_NO":"999","NORAD_CAT_ID":"45214","MEAN_ANOMALY":"280.1771","BSTAR":"0.00007627000000","EPHEMERIS_TYPE":"0","MEAN_MOTION_DOT":"0.00000855","PERIOD":"95.592"},{"RCS_SIZE":"LARGE","TLE_LINE1":"1 45215U 20012AP  23004.80251861  .00001659  00000-0  13024-3 0  9996","APOAPSIS":"548.121","ARG_OF_PERICENTER":"101.7622","SEMIMAJOR_AXIS":"6925.351","OBJECT_TYPE":"PAYLOAD","OBJECT_NAME":"STARLINK-1245","ECCENTRICITY":"0.00013070","MEAN_MOTION_DOT":"0.00001659","PERIOD":"95.592","MEAN_ANOMALY":"258.3513","BSTAR":"0.00013024000000","EPHEMERIS_TYPE":"0","NORAD_CAT_ID":"45215","ELEMENT_SET_NO":"999","CLASSIFICATION_TYPE":"U","DECAY_DATE":null,"TLE_LINE2":"2 45215  53.0525 193.5613 0001307 101.7622 258.3513 15.06399310159354","SITE":"AFETR","CENTER_NAME":"EARTH","GP_ID":"222193578","REV_AT_EPOCH":"15935","RA_OF_ASC_NODE":"193.5613","REF_FRAME":"TEME","COUNTRY_CODE":"US","TIME_SYSTEM":"UTC","MEAN_ELEMENT_THEORY":"SGP4","LAUNCH_DATE":"2020-02-17","INCLINATION":"53.0525","EPOCH":"2023-01-04T19:15:37.607904","PERIAPSIS":"546.311","OBJECT_ID":"2020-012AP","FILE":"3732026","MEAN_MOTION_DDOT":"0.0000000000000","MEAN_MOTION":"15.06399310"},{"COUNTRY_CODE":"US","RA_OF_ASC_NODE":"195.7610","REV_AT_EPOCH":"16022","REF_FRAME":"TEME","CENTER_NAME":"EARTH","GP_ID":"222156494","TLE_LINE2":"2 45217  53.0528 195.7610 0001340  92.6369 267.4774 15.06380201160220","SITE":"AFETR","MEAN_MOTION_DDOT":"0.0000000000000","FILE":"3731823","MEAN_MOTION":"15.06380201","PERIAPSIS":"546.346","OBJECT_ID":"2020-012AR","TIME_SYSTEM":"UTC","EPOCH":"2023-01-04T07:29:43.202112","LAUNCH_DATE":"2020-02-17","INCLINATION":"53.0528","MEAN_ELEMENT_THEORY":"SGP4","ECCENTRICITY":"0.00013400","OBJECT_NAME":"STARLINK-1271","SEMIMAJOR_AXIS":"6925.409","ARG_OF_PERICENTER":"92.6369","OBJECT_TYPE":"PAYLOAD","TLE_LINE1":"1 45217U 20012AR  23004.31230558 -.00001721  00000-0 -96718-4 0  9998","APOAPSIS":"548.202","RCS_SIZE":"LARGE","CLASSIFICATION_TYPE":"U","DECAY_DATE":null,"NORAD_CAT_ID":"45217","ELEMENT_SET_NO":"999","MEAN_ANOMALY":"267.4774","BSTAR":"-0.00009671800000","EPHEMERIS_TYPE":"0","MEAN_MOTION_DOT":"-0.00001721","PERIOD":"95.593"},{"EPHEMERIS_TYPE":"0","BSTAR":"0.00005634800000","MEAN_ANOMALY":"276.4735","PERIOD":"95.592","MEAN_MOTION_DOT":"0.00000558","CLASSIFICATION_TYPE":"U","DECAY_DATE":null,"NORAD_CAT_ID":"45219","ELEMENT_SET_NO":"999","TLE_LINE1":"1 45219U 20012AT  23004.17774829  .00000558  00000-0  56348-4 0  9998","APOAPSIS":"548.150","RCS_SIZE":"LARGE","ECCENTRICITY":"0.00013850","OBJECT_NAME":"STARLINK-1187","OBJECT_TYPE":"PAYLOAD","SEMIMAJOR_AXIS":"6925.326","ARG_OF_PERICENTER":"83.6412","INCLINATION":"53.0542","LAUNCH_DATE":"2020-02-17","EPOCH":"2023-01-04T04:15:57.452256","MEAN_ELEMENT_THEORY":"SGP4","TIME_SYSTEM":"UTC","MEAN_MOTION":"15.06407521","MEAN_MOTION_DDOT":"0.0000000000000","FILE":"3731823","OBJECT_ID":"2020-012AT","PERIAPSIS":"546.231","CENTER_NAME":"EARTH","GP_ID":"222156738","TLE_LINE2":"2 45219  53.0542 176.3560 0001385  83.6412 276.4735 15.06407521160496","SITE":"AFETR","COUNTRY_CODE":"US","RA_OF_ASC_NODE":"176.3560","REV_AT_EPOCH":"16049","REF_FRAME":"TEME"}];
